CSS (TIANHE)            
1 48274U 21035A   22213.19951104  .00005339  00000+0  64509-4 0  9993
2 48274  41.4735 304.8133 0007180 324.4976 234.8298 15.61461232 71807
